{
  "norad_id": 64008,
  "name": "STARLINK-34163",
  "history": [
    {
      "epoch": "2026-03-28T20:24:12.206592",
      "apogee_km": 483.50526753850954,
      "perigee_km": 482.43713021410804,
      "latitude_deg": 36.8268858214569,
      "longitude_deg": -57.586437119869515,
      "semi_major_axis_km": 6861.108198876308,
      "eccentricity": 7.784e-05,
      "inclination_deg": 42.9983,
      "raan_deg": 249.9268,
      "arg_perigee_deg": 273.1566,
      "mean_anomaly_deg": 86.9196,
      "mean_motion_rev_day": 15.27606015
    }
  ]
}